OBJECT_NAME,OBJECT_ID,EPOCH,MEAN_MOTION,ECCENTRICITY,INCLINATION,RA_OF_ASC_NODE,ARG_OF_PERICENTER,MEAN_ANOMALY,EPHEMERIS_TYPE,CLASSIFICATION_TYPE,NORAD_CAT_ID,ELEMENT_SET_NO,REV_AT_EPOCH,BSTAR,MEAN_MOTION_DOT,MEAN_MOTION_DDOT
GALAXY 3C (G-3C),2002-030A,2026-06-13T14:24:45.038592,1.00271316,.00015564,3.7220,78.0224,34.2316,270.9982,0,U,27445,999,4645,0,-.144E-5,0
INTELSAT 906 (IS-906),2002-041A,2026-06-13T04:50:21.617376,1.00272123,.00046413,5.7930,72.9713,3.1517,322.1191,0,U,27513,999,8698,0,.21E-6,0
NIMIQ 2,2002-062A,2026-06-13T05:47:23.763264,1.00271657,.000542,9.4370,56.9416,21.2451,161.0265,0,U,27632,999,4414,0,-.65E-6,0
USA 167,2003-008A,2026-06-13T07:06:38.539296,1.00273034,.00038434,10.9535,43.4431,310.9228,252.2023,0,U,27691,999,673,0,.6E-7,0
USA 169 (MILSTAR-2 4),2003-012A,2026-06-13T10:12:45.367776,1.00273556,.01005826,12.3437,29.8720,9.0532,168.1308,0,U,27711,999,3291,0,-.235E-5,0
ASIASAT 4,2003-014A,2026-06-13T14:10:12.499680,1.00271187,.0002991,4.6955,75.7923,10.5604,175.6482,0,U,27718,999,4526,0,-.215E-5,0
HELLAS-SAT 2,2003-020A,2026-06-12T23:25:04.686816,1.00271061,.00023922,7.3440,67.9336,17.7831,156.8356,0,U,27811,999,4280,0,-.77E-6,0
THURAYA-2,2003-026A,2026-06-13T06:31:04.378944,1.00272394,.0003129,8.8346,31.9963,8.7136,2.6419,0,U,27825,999,8431,0,.129E-5,0
OPTUS C1,2003-028B,2026-06-12T23:11:51.775008,1.00272844,.00054742,6.8788,69.4599,9.4427,326.0852,0,U,27831,999,5301,0,-.143E-5,0
USA 170,2003-040A,2026-06-12T20:09:29.709216,1.00267655,.00022258,10.4916,47.9884,64.2538,115.6114,0,U,27875,999,3295,0,.131E-5,0
GALAXY 13 (HORIZONS-1),2003-044A,2026-06-13T14:09:01.547136,1.00269405,.00023017,1.4105,83.9099,347.7674,252.4828,0,U,27954,999,4653,0,.143E-5,0
YAMAL 202,2003-053A,2026-06-13T12:13:12.229248,1.00271518,.00033833,6.3336,70.9825,5.9925,171.7363,0,U,28089,999,8266,0,-.74E-6,0
UFO 11 (USA 174),2003-057A,2026-06-13T03:41:57.685632,1.00274520,.00026284,8.9309,33.8494,51.8670,306.8409,0,U,28117,999,8240,0,-.1E-5,0
USA 176 (DSP 22),2004-004A,2026-06-11T23:21:41.975136,1.00406369,.0001239,12.0550,26.1076,290.9902,243.8917,0,U,28158,999,3288,0,-.286E-5,0
ABS-4 (MOBISAT-1),2004-007A,2026-06-13T06:07:38.695872,1.00272587,.00051833,6.0322,72.0555,7.7201,334.6641,0,U,28184,999,5229,0,.47E-6,0
INTELSAT 10-02,2004-022A,2026-06-13T14:51:30.657312,1.00269844,.00001548,0.0136,336.6129,229.4472,277.7349,0,U,28358,999,8052,0,0,0
ANIK F2,2004-027A,2026-06-13T14:20:07.982304,1.00271256,.00040044,3.2776,79.4930,6.5758,279.7459,0,U,28378,999,4122,0,-.41E-6,0
AMC-15,2004-041A,2026-06-13T14:21:52.814880,1.00271474,.00021,0.0200,324.8327,128.4732,279.0365,0,U,28446,999,7926,0,-.77E-6,0
NSS-10,2005-003A,2026-06-13T00:59:56.275584,1.00271195,.00026891,6.4388,70.5028,1.9907,166.4100,0,U,28526,999,5311,0,-.243E-5,0
INMARSAT 4-F1,2005-009A,2026-06-12T22:37:38.813376,1.00271870,.00025081,5.1624,42.7488,44.9856,331.0651,0,U,28628,999,7763,0,.42E-6,0
DIRECTV 8,2005-019A,2026-06-13T14:17:53.196576,1.00270823,.00027566,0.0249,67.4271,18.7619,271.1367,0,U,28659,999,7703,0,.12E-6,0
GALAXY 28 (G-28),2005-022A,2026-06-13T11:18:49.518144,1.00271339,.00028658,3.2895,78.9788,1.6531,323.7595,0,U,28702,999,5193,0,-.191E-5,0
THAICOM 4,2005-028A,2026-06-13T15:25:55.429824,1.00271324,.00016266,0.2362,85.9451,346.5370,180.4578,0,U,28786,999,5221,0,-.351E-5,0
ANIK F1R,2005-036A,2026-06-13T10:41:38.560416,1.00270756,.0004059,4.3029,76.6241,359.0174,239.2512,0,U,28868,999,4641,0,-.67E-6,0
SYRACUSE 3A,2005-041B,2026-06-12T21:58:31.547424,1.00273192,.00030426,4.6323,75.8907,346.3556,215.2680,0,U,28885,999,7570,0,.139E-5,0
INMARSAT 4-F2,2005-044A,2026-06-13T13:50:01.557024,1.00271325,.00028107,5.0897,43.7030,36.3582,172.8276,0,U,28899,999,7548,0,-.254E-5,0
METEOSAT-9 (MSG-2),2005-049B,2026-06-12T18:32:58.600608,1.00270154,.00015467,9.3512,54.2102,347.3160,183.4652,0,U,28912,999,695,0,.13E-5,0
EUTELSAT 174A,2005-052A,2026-06-13T13:58:47.528256,1.00270392,.00061232,4.2102,76.5706,5.9405,203.0430,0,U,28924,999,5229,0,.16E-6,0
ECHOSTAR 10,2006-003A,2026-06-13T14:20:22.958016,1.00270491,.00014811,0.0173,342.3254,74.0620,310.4287,0,U,28935,999,7442,0,-.44E-6,0
SPAINSAT,2006-007A,2026-06-13T08:34:13.007136,1.00270618,.00046476,0.5530,86.5926,354.4516,279.0147,0,U,28945,999,7417,0,-.205E-5,0
JCSAT-5A,2006-010A,2026-06-13T15:29:02.630112,1.00270668,.00018635,1.1001,84.2556,15.6467,166.3589,0,U,29045,999,7373,0,-.318E-5,0
ASTRA 1KR,2006-012A,2026-06-13T14:57:15.105600,1.00269829,.0003279,0.4644,83.1987,354.1785,67.8511,0,U,29055,999,4566,0,.129E-5,0
