GALAXY 3C (G-3C)        
1 27445U 02030A   26164.60052128 -.00000144  00000+0  00000+0 0  9998
2 27445   3.7220  78.0224 0001556  34.2316 270.9982  1.00271316 46454
INTELSAT 906 (IS-906)   
1 27513U 02041A   26164.20163909  .00000021  00000+0  00000+0 0  9995
2 27513   5.7930  72.9713 0004641   3.1517 322.1191  1.00272123 86983
NIMIQ 2                 
1 27632U 02062A   26164.24124726 -.00000065  00000+0  00000+0 0  9997
2 27632   9.4370  56.9416 0005420  21.2451 161.0265  1.00271657 44145
USA 167                 
1 27691U 03008A   26164.29627939  .00000006  00000+0  00000+0 0  9996
2 27691  10.9535  43.4431 0003843 310.9228 252.2023  1.00273034  6734
USA 169 (MILSTAR-2 4)   
1 27711U 03012A   26164.42552509 -.00000235  00000+0  00000+0 0  9994
2 27711  12.3437  29.8720 0100582   9.0532 168.1308  1.00273556 32914
ASIASAT 4               
1 27718U 03014A   26164.59042245 -.00000215  00000+0  00000+0 0  9990
2 27718   4.6955  75.7923 0002991  10.5604 175.6482  1.00271187 45263
HELLAS-SAT 2            
1 27811U 03020A   26163.97574869 -.00000077  00000+0  00000+0 0  9990
2 27811   7.3440  67.9336 0002392  17.7831 156.8356  1.00271061 42802
THURAYA-2               
1 27825U 03026A   26164.27157846  .00000129  00000+0  00000+0 0  9994
2 27825   8.8346  31.9963 0003129   8.7136   2.6419  1.00272394 84312
OPTUS C1                
1 27831U 03028B   26163.96657147 -.00000143  00000+0  00000+0 0  9994
2 27831   6.8788  69.4599 0005474   9.4427 326.0852  1.00272844 53011
USA 170                 
1 27875U 03040A   26163.83992719  .00000131  00000+0  00000+0 0  9995
2 27875  10.4916  47.9884 0002225  64.2538 115.6114  1.00267655 32951
GALAXY 13 (HORIZONS-1)  
1 27954U 03044A   26164.58960124  .00000143  00000+0  00000+0 0  9998
2 27954   1.4105  83.9099 0002301 347.7674 252.4828  1.00269405 46538
YAMAL 202               
1 28089U 03053A   26164.50916932 -.00000074  00000+0  00000+0 0  9992
2 28089   6.3336  70.9825 0003383   5.9925 171.7363  1.00271518 82663
UFO 11 (USA 174)        
1 28117U 03057A   26164.15413988 -.00000100  00000+0  00000+0 0  9992
2 28117   8.9309  33.8494 0002628  51.8670 306.8409  1.00274520 82401
USA 176 (DSP 22)        
1 28158U 04004A   26162.97340249 -.00000286  00000+0  00000+0 0  9992
2 28158  12.0550  26.1076 0001239 290.9902 243.8917  1.00406369 32881
ABS-4 (MOBISAT-1)       
1 28184U 04007A   26164.25530898  .00000047  00000+0  00000+0 0  9992
2 28184   6.0322  72.0555 0005183   7.7201 334.6641  1.00272587 52293
INTELSAT 10-02          
1 28358U 04022A   26164.61910483  .00000000  00000+0  00000+0 0  9993
2 28358   0.0136 336.6129 0000154 229.4472 277.7349  1.00269844 80526
ANIK F2                 
1 28378U 04027A   26164.59731461 -.00000041  00000+0  00000+0 0  9990
2 28378   3.2776  79.4930 0004004   6.5758 279.7459  1.00271256 41222
AMC-15                  
1 28446U 04041A   26164.59852795 -.00000077  00000+0  00000+0 0  9995
2 28446   0.0200 324.8327 0002100 128.4732 279.0365  1.00271474 79269
NSS-10                  
1 28526U 05003A   26164.04162356 -.00000243  00000+0  00000+0 0  9995
2 28526   6.4388  70.5028 0002689   1.9907 166.4100  1.00271195 53111
INMARSAT 4-F1           
1 28628U 05009A   26163.94281034  .00000042  00000+0  00000+0 0  9993
2 28628   5.1624  42.7488 0002508  44.9856 331.0651  1.00271870 77638
DIRECTV 8               
1 28659U 05019A   26164.59575459  .00000012  00000+0  00000+0 0  9994
2 28659   0.0249  67.4271 0002756  18.7619 271.1367  1.00270823 77033
GALAXY 28 (G-28)        
1 28702U 05022A   26164.47140646 -.00000191  00000+0  00000+0 0  9999
2 28702   3.2895  78.9788 0002865   1.6531 323.7595  1.00271339 51930
THAICOM 4               
1 28786U 05028A   26164.64300266 -.00000351  00000+0  00000+0 0  9990
2 28786   0.2362  85.9451 0001626 346.5370 180.4578  1.00271324 52214
ANIK F1R                
1 28868U 05036A   26164.44558519 -.00000067  00000+0  00000+0 0  9998
2 28868   4.3029  76.6241 0004059 359.0174 239.2512  1.00270756 46412
SYRACUSE 3A             
1 28885U 05041B   26163.91564291  .00000139  00000+0  00000+0 0  9997
2 28885   4.6323  75.8907 0003042 346.3556 215.2680  1.00273192 75706
INMARSAT 4-F2           
1 28899U 05044A   26164.57640691 -.00000254  00000+0  00000+0 0  9996
2 28899   5.0897  43.7030 0002810  36.3582 172.8276  1.00271325 75480
METEOSAT-9 (MSG-2)      
1 28912U 05049B   26163.77290047  .00000130  00000+0  00000+0 0  9996
2 28912   9.3512  54.2102 0001546 347.3160 183.4652  1.00270154  6957
EUTELSAT 174A           
1 28924U 05052A   26164.58249454  .00000016  00000+0  00000+0 0  9992
2 28924   4.2102  76.5706 0006123   5.9405 203.0430  1.00270392 52296
ECHOSTAR 10             
1 28935U 06003A   26164.59748794 -.00000044  00000+0  00000+0 0  9995
2 28935   0.0173 342.3254 0001481  74.0620 310.4287  1.00270491 74422
SPAINSAT                
1 28945U 06007A   26164.35709499 -.00000205  00000+0  00000+0 0  9992
2 28945   0.5530  86.5926 0004647 354.4516 279.0147  1.00270618 74172
JCSAT-5A                
1 29045U 06010A   26164.64516933 -.00000318  00000+0  00000+0 0  9994
2 29045   1.1001  84.2556 0001863  15.6467 166.3589  1.00270668 73730
ASTRA 1KR               
1 29055U 06012A   26164.62309150  .00000129  00000+0  00000+0 0  9995
2 29055   0.4644  83.1987 0003279 354.1785  67.8511  1.00269829 45667
